[{"OBJECT_NAME":"OBJECT F","OBJECT_ID":"2024-092F","EPOCH":"2026-03-09T21:54:46.147104","MEAN_MOTION":15.3361444,"ECCENTRICITY":0.00086458,"INCLINATION":97.6418,"RA_OF_ASC_NODE":198.4543,"ARG_OF_PERICENTER":142.6506,"MEAN_ANOMALY":217.5339,"EPHEMERIS_TYPE":0,"CLASSIFICATION_TYPE":"U","NORAD_CAT_ID":59778,"ELEMENT_SET_NO":999,"REV_AT_EPOCH":10053,"BSTAR":0.0007914277,"MEAN_MOTION_DOT":0.00025723,"MEAN_MOTION_DDOT":0},{"OBJECT_NAME":"STARLINK-35272","OBJECT_ID":"2025-224T","EPOCH":"2026-03-09T03:18:38.807424","MEAN_MOTION":15.30219147,"ECCENTRICITY":0.00010919,"INCLINATION":53.1594,"RA_OF_ASC_NODE":13.6334,"ARG_OF_PERICENTER":73.1013,"MEAN_ANOMALY":287.0107,"EPHEMERIS_TYPE":0,"CLASSIFICATION_TYPE":"U","NORAD_CAT_ID":65899,"ELEMENT_SET_NO":999,"REV_AT_EPOCH":2478,"BSTAR":0.0011594227,"MEAN_MOTION_DOT":0.00034158,"MEAN_MOTION_DDOT":0}]
